event_id,source_origin_time,source_latitude_deg,source_longitude_deg,source_type,source_depth_km,preferred_source_magnitude,preferred_source_magnitude_type,preferred_source_magnitude_uncertainty,source_depth_uncertainty_km,source_horizontal_uncertainty_km,station_network_code,station_channel_code,station_code,station_location_code,station_latitude_deg,station_longitude_deg,station_elevation_m,trace_name,trace_sampling_rate_hz,trace_start_time,trace_S_arrival_sample,trace_P_arrival_sample,trace_S_arrival_uncertainty_s,trace_P_arrival_uncertainty_s,trace_P_polarity,trace_S_onset,trace_P_onset,trace_snr_db,source_type_pnsn_label,source_local_magnitude,source_local_magnitude_uncertainty,source_duration_magnitude,source_duration_magnitude_uncertainty,source_hand_magnitude,trace_missing_channel,trace_has_offset
ev1262421109_627744,2010-01-02T08:31:49.627744Z,46.03162,-122.85444,earthquake,20745.0,,,,,,PB,EH,B203,,46.168999,-122.333664,814.4,"7$18,:1,:14998",100,2010-01-02T08:30:59.627744Z,6372.0,5783.0,,,,impulsive,impulsive,,,,,,,,,
ev1262421109_627744,2010-01-02T08:31:49.627744Z,46.03162,-122.85444,earthquake,20745.0,,,,,,PB,EH,B204,,46.136,-122.169,784.2,"4$20,:1,:14998",100,2010-01-02T08:30:59.627744Z,6640.0,5941.0,,,,impulsive,impulsive,,,,,,,,,
ev1262421109_627744,2010-01-02T08:31:49.627744Z,46.03162,-122.85444,earthquake,20745.0,,,,,,PB,EH,B941,,46.986801,-122.219002,151.0,"5$12,:1,:14998",100,2010-01-02T08:30:59.627744Z,8185.0,6832.0,,,,impulsive,impulsive,,,,,,,,,
ev1262421109_627744,2010-01-02T08:31:49.627744Z,46.03162,-122.85444,earthquake,20745.0,,,,,,UW,EH,BOW,,46.474831,-123.229301,870.0,"5$13,:1,:14998",100,2010-01-02T08:30:59.627744Z,6686.0,5971.0,,,,impulsive,impulsive,,,,,,,,,
ev1262421109_627744,2010-01-02T08:31:49.627744Z,46.03162,-122.85444,earthquake,20745.0,,,,,,UW,EH,ELK,,46.30597,-122.34167,1270.0,"3$13,:1,:14998",100,2010-01-02T08:30:59.627744Z,6503.0,5856.0,,,,impulsive,impulsive,,,,,,,,,
ev1262421109_627744,2010-01-02T08:31:49.627744Z,46.03162,-122.85444,earthquake,20745.0,,,,,,UW,EH,FL2,,46.19622,-122.35149,1378.0,"3$14,:1,:14998",100,2010-01-02T08:30:59.627744Z,6351.0,5798.0,,,,impulsive,impulsive,,,,,,,,,
ev1262421109_627744,2010-01-02T08:31:49.627744Z,46.03162,-122.85444,earthquake,20745.0,,,,,,UW,EH,HSR,,46.17428,-122.18065,1720.0,"5$14,:1,:14998",100,2010-01-02T08:30:59.627744Z,6809.0,,,,,impulsive,,,,,,,,,,
