event_id,source_origin_time,source_latitude_deg,source_longitude_deg,source_type,source_depth_km,preferred_source_magnitude,preferred_source_magnitude_type,preferred_source_magnitude_uncertainty,source_depth_uncertainty_km,source_horizontal_uncertainty_km,station_network_code,station_channel_code,station_code,station_location_code,station_latitude_deg,station_longitude_deg,station_elevation_m,trace_name,trace_sampling_rate_hz,trace_start_time,trace_S_arrival_sample,trace_P_arrival_sample,trace_S_arrival_uncertainty_s,trace_P_arrival_uncertainty_s,trace_P_polarity,trace_S_onset,trace_P_onset,trace_snr_db,source_type_pnsn_label,source_local_magnitude,source_local_magnitude_uncertainty,source_duration_magnitude,source_duration_magnitude_uncertainty,source_hand_magnitude,trace_missing_channel,trace_has_offset
ev1262536672_031261,2010-01-03T16:37:52.031261Z,45.05914,-122.44958,earthquake,15084.0,,,,,,UW,EH,FL2,,46.19622,-122.35149,1378.0,"1$42,:1,:14998",100,2010-01-03T16:37:02.031261Z,,7070.0,,,,,impulsive,,,,,,,,,
ev1262536672_031261,2010-01-03T16:37:52.031261Z,45.05914,-122.44958,earthquake,15084.0,,,,,,UW,EH,TDL,,46.35067,-122.21704,1400.0,"2$40,:1,:14998",100,2010-01-03T16:37:02.031261Z,,7334.0,,,,,impulsive,,,,,,,,,
ev1262540286_850315,2010-01-03T17:38:06.850315Z,40.35794,-124.33782,earthquake,17187.0,,,,,,PB,EH,B035,,42.503513,-123.383415,370.0,"7$40,:1,:14998",100,2010-01-03T17:37:16.850315Z,11138.0,8507.0,,,,impulsive,impulsive,,,,,,,,,
ev1262540286_850315,2010-01-03T17:38:06.850315Z,40.35794,-124.33782,earthquake,17187.0,,,,,,PB,EH,B036,,42.505833,-123.381668,315.3,"10$40,:1,:14998",100,2010-01-03T17:37:16.850315Z,11182.0,8525.0,,,,impulsive,impulsive,,,,,,,,,
ev1262540286_850315,2010-01-03T17:38:06.850315Z,40.35794,-124.33782,earthquake,17187.0,,,,,,PB,EH,B046,,40.321972,-124.284302,44.0,"6$32,:1,:14998",100,2010-01-03T17:37:16.850315Z,5715.0,5388.0,,,,impulsive,impulsive,,,,,,,,,
ev1262540286_850315,2010-01-03T17:38:06.850315Z,40.35794,-124.33782,earthquake,17187.0,,,,,,PB,EH,B047,,40.249933,-124.169848,80.0,"6$33,:1,:14998",100,2010-01-03T17:37:16.850315Z,5867.0,5475.0,,,,impulsive,impulsive,,,,,,,,,
ev1262540286_850315,2010-01-03T17:38:06.850315Z,40.35794,-124.33782,earthquake,17187.0,,,,,,PB,EH,B049,,40.237499,-123.819702,117.0,"2$41,:1,:14998",100,2010-01-03T17:37:16.850315Z,6565.0,5863.0,,,,impulsive,impulsive,,,,,,,,,
ev1262540286_850315,2010-01-03T17:38:06.850315Z,40.35794,-124.33782,earthquake,17187.0,,,,,,PB,EH,B932,,40.275002,-124.221199,52.0,"7$41,:1,:14998",100,2010-01-03T17:37:16.850315Z,5762.0,5415.0,,,,impulsive,impulsive,,,,,,,,,
ev1262540286_850315,2010-01-03T17:38:06.850315Z,40.35794,-124.33782,earthquake,17187.0,,,,,,PB,EH,B933,,40.060001,-123.969002,268.1,"8$56,:1,:14998",100,2010-01-03T17:37:16.850315Z,6480.0,5828.0,,,,impulsive,impulsive,,,,,,,,,
ev1262542243_767983,2010-01-03T18:10:43.767983Z,40.73679,-124.33722,earthquake,22826.0,,,,,,PB,EH,B031,,43.664299,-123.396698,71.0,"3$41,:1,:14998",100,2010-01-03T18:09:53.767983Z,,9097.0,,,,,impulsive,,,,,,,,,
ev1262542243_767983,2010-01-03T18:10:43.767983Z,40.73679,-124.33722,earthquake,22826.0,,,,,,PB,EH,B032,,43.667999,-123.392303,63.8,"5$45,:1,:14998",100,2010-01-03T18:09:53.767983Z,,9526.0,,,,,impulsive,,,,,,,,,
ev1262542243_767983,2010-01-03T18:10:43.767983Z,40.73679,-124.33722,earthquake,22826.0,,,,,,PB,EH,B035,,42.503513,-123.383415,370.0,"10$41,:1,:14998",100,2010-01-03T18:09:53.767983Z,10216.0,7961.0,,,,impulsive,impulsive,,,,,,,,,
ev1262542243_767983,2010-01-03T18:10:43.767983Z,40.73679,-124.33722,earthquake,22826.0,,,,,,PB,EH,B036,,42.505833,-123.381668,315.3,"7$42,:1,:14998",100,2010-01-03T18:09:53.767983Z,10225.0,7962.0,,,,impulsive,impulsive,,,,,,,,,
ev1262542243_767983,2010-01-03T18:10:43.767983Z,40.73679,-124.33722,earthquake,22826.0,,,,,,PB,EH,B046,,40.321972,-124.284302,44.0,"1$43,:1,:14998",100,2010-01-03T18:09:53.767983Z,6577.0,5901.0,,,,impulsive,impulsive,,,,,,,,,
ev1262542243_767983,2010-01-03T18:10:43.767983Z,40.73679,-124.33722,earthquake,22826.0,,,,,,PB,EH,B047,,40.249933,-124.169848,80.0,"10$42,:1,:14998",100,2010-01-03T18:09:53.767983Z,6756.0,6000.0,,,,impulsive,impulsive,,,,,,,,,
ev1262542243_767983,2010-01-03T18:10:43.767983Z,40.73679,-124.33722,earthquake,22826.0,,,,,,PB,EH,B049,,40.237499,-123.819702,117.0,"6$34,:1,:14998",100,2010-01-03T18:09:53.767983Z,7085.0,6176.0,,,,impulsive,impulsive,,,,,,,,,
ev1262542243_767983,2010-01-03T18:10:43.767983Z,40.73679,-124.33722,earthquake,22826.0,,,,,,PB,EH,B932,,40.275002,-124.221199,52.0,"9$39,:1,:14998",100,2010-01-03T18:09:53.767983Z,6663.0,5949.0,,,,impulsive,impulsive,,,,,,,,,
ev1262542243_767983,2010-01-03T18:10:43.767983Z,40.73679,-124.33722,earthquake,22826.0,,,,,,PB,EH,B933,,40.060001,-123.969002,268.1,"7$43,:1,:14998",100,2010-01-03T18:09:53.767983Z,7347.0,6331.0,,,,impulsive,impulsive,,,,,,,,,
ev1262546016_119617,2010-01-03T19:13:36.119617Z,48.3253,-122.39822,earthquake,12490.0,,,,,,CN,EH,BIB,,49.4103,-123.3105,38.0,"6$35,:1,:14998",100,2010-01-03T19:12:46.119617Z,8868.0,7173.0,,,,impulsive,impulsive,,,,,,,,,
ev1262546016_119617,2010-01-03T19:13:36.119617Z,48.3253,-122.39822,earthquake,12490.0,,,,,,CN,EH,GOBB,,48.9493,-123.5105,173.0,"3$42,:1,:14998",100,2010-01-03T19:12:46.119617Z,8032.0,6740.0,,,,impulsive,impulsive,,,,,,,,,
ev1262546016_119617,2010-01-03T19:13:36.119617Z,48.3253,-122.39822,earthquake,12490.0,,,,,,CN,EH,TXB,,49.698,-124.4376,492.0,"4$37,:1,:14998",100,2010-01-03T19:12:46.119617Z,,8269.0,,,,,impulsive,,,,,,,,,
ev1262546016_119617,2010-01-03T19:13:36.119617Z,48.3253,-122.39822,earthquake,12490.0,,,,,,CN,EH,VDB,,49.0261,-122.1028,404.0,"7$44,:1,:14998",100,2010-01-03T19:12:46.119617Z,,6367.0,,,,,impulsive,,,,,,,,,
ev1262546016_119617,2010-01-03T19:13:36.119617Z,48.3253,-122.39822,earthquake,12490.0,,,,,,PB,EH,B006,,48.0588,-123.500801,302.0,"6$36,:1,:14998",100,2010-01-03T19:12:46.119617Z,7483.0,6416.0,,,,impulsive,impulsive,,,,,,,,,
ev1262546016_119617,2010-01-03T19:13:36.119617Z,48.3253,-122.39822,earthquake,12490.0,,,,,,PB,EH,B007,,48.057575,-123.504112,293.0,"0$26,:1,:14998",100,2010-01-03T19:12:46.119617Z,7482.0,6416.0,,,,impulsive,impulsive,,,,,,,,,
ev1262546016_119617,2010-01-03T19:13:36.119617Z,48.3253,-122.39822,earthquake,12490.0,,,,,,PB,EH,B009,,48.64867,-123.451172,15.0,"2$42,:1,:14998",100,2010-01-03T19:12:46.119617Z,7375.0,6403.0,,,,impulsive,impulsive,,,,,,,,,
ev1262546016_119617,2010-01-03T19:13:36.119617Z,48.3253,-122.39822,earthquake,12490.0,,,,,,PB,EH,B010,,48.650169,-123.451332,5.0,"0$27,:1,:14998",100,2010-01-03T19:12:46.119617Z,7377.0,6400.0,,,,impulsive,impulsive,,,,,,,,,
ev1262546016_119617,2010-01-03T19:13:36.119617Z,48.3253,-122.39822,earthquake,12490.0,,,,,,PB,EH,B011,,48.649544,-123.448189,22.0,"2$43,:1,:14998",100,2010-01-03T19:12:46.119617Z,7369.0,6421.0,,,,impulsive,impulsive,,,,,,,,,
ev1262546016_119617,2010-01-03T19:13:36.119617Z,48.3253,-122.39822,earthquake,12490.0,,,,,,PB,EH,B013,,47.813,-122.910797,75.3,"3$43,:1,:14998",100,2010-01-03T19:12:46.119617Z,6983.0,6120.0,,,,impulsive,impulsive,,,,,,,,,
ev1262546016_119617,2010-01-03T19:13:36.119617Z,48.3253,-122.39822,earthquake,12490.0,,,,,,PB,EH,B926,,48.820202,-124.131203,191.6,"5$46,:1,:14998",100,2010-01-03T19:12:46.119617Z,8734.0,7177.0,,,,impulsive,impulsive,,,,,,,,,
