event_id,source_origin_time,source_latitude_deg,source_longitude_deg,source_type,source_depth_km,preferred_source_magnitude,preferred_source_magnitude_type,preferred_source_magnitude_uncertainty,source_depth_uncertainty_km,source_horizontal_uncertainty_km,station_network_code,station_channel_code,station_code,station_location_code,station_latitude_deg,station_longitude_deg,station_elevation_m,trace_name,trace_sampling_rate_hz,trace_start_time,trace_S_arrival_sample,trace_P_arrival_sample,trace_S_arrival_uncertainty_s,trace_P_arrival_uncertainty_s,trace_P_polarity,trace_S_onset,trace_P_onset,trace_snr_db,source_type_pnsn_label,source_local_magnitude,source_local_magnitude_uncertainty,source_duration_magnitude,source_duration_magnitude_uncertainty,source_hand_magnitude,trace_missing_channel,trace_has_offset
ev1262490203_420322,2010-01-03T03:43:23.420322Z,40.58015,-124.37658,earthquake,10137.0,,,,,,PB,EH,B046,,40.321972,-124.284302,44.0,"10$32,:1,:14998",100,2010-01-03T03:42:33.420322Z,6093.0,5600.0,,,,impulsive,impulsive,,,,,,,,,
ev1262490203_420322,2010-01-03T03:43:23.420322Z,40.58015,-124.37658,earthquake,10137.0,,,,,,PB,EH,B047,,40.249933,-124.169848,80.0,"10$33,:1,:14998",100,2010-01-03T03:42:33.420322Z,6428.0,5760.0,,,,impulsive,impulsive,,,,,,,,,
ev1262490203_420322,2010-01-03T03:43:23.420322Z,40.58015,-124.37658,earthquake,10137.0,,,,,,PB,EH,B049,,40.237499,-123.819702,117.0,"3$33,:1,:14998",100,2010-01-03T03:42:33.420322Z,7020.0,6074.0,,,,impulsive,impulsive,,,,,,,,,
ev1262490203_420322,2010-01-03T03:43:23.420322Z,40.58015,-124.37658,earthquake,10137.0,,,,,,PB,EH,B932,,40.275002,-124.221199,52.0,"7$28,:1,:14998",100,2010-01-03T03:42:33.420322Z,6247.0,5687.0,,,,impulsive,impulsive,,,,,,,,,
ev1262490203_420322,2010-01-03T03:43:23.420322Z,40.58015,-124.37658,earthquake,10137.0,,,,,,PB,EH,B933,,40.060001,-123.969002,268.1,"7$29,:1,:14998",100,2010-01-03T03:42:33.420322Z,7177.0,6219.0,,,,impulsive,impulsive,,,,,,,,,
ev1262492914_770681,2010-01-03T04:28:34.770681Z,40.28301,-124.43241,earthquake,26052.0,,,,,,PB,EH,B046,,40.321972,-124.284302,44.0,"3$34,:1,:14998",100,2010-01-03T04:27:44.770681Z,5937.0,5548.0,,,,impulsive,impulsive,,,,,,,,,
ev1262492914_770681,2010-01-03T04:28:34.770681Z,40.28301,-124.43241,earthquake,26052.0,,,,,,PB,EH,B047,,40.249933,-124.169848,80.0,"0$21,:1,:14998",100,2010-01-03T04:27:44.770681Z,6144.0,5672.0,,,,impulsive,impulsive,,,,,,,,,
ev1262492914_770681,2010-01-03T04:28:34.770681Z,40.28301,-124.43241,earthquake,26052.0,,,,,,PB,EH,B049,,40.237499,-123.819702,117.0,"0$22,:1,:14998",100,2010-01-03T04:27:44.770681Z,6726.0,6005.0,,,,impulsive,impulsive,,,,,,,,,
ev1262492914_770681,2010-01-03T04:28:34.770681Z,40.28301,-124.43241,earthquake,26052.0,,,,,,PB,EH,B932,,40.275002,-124.221199,52.0,"2$29,:1,:14998",100,2010-01-03T04:27:44.770681Z,6026.0,5578.0,,,,impulsive,impulsive,,,,,,,,,
ev1262492914_770681,2010-01-03T04:28:34.770681Z,40.28301,-124.43241,earthquake,26052.0,,,,,,PB,EH,B933,,40.060001,-123.969002,268.1,"10$34,:1,:14998",100,2010-01-03T04:27:44.770681Z,6468.0,,,,,impulsive,,,,,,,,,,
ev1262496644_697638,2010-01-03T05:30:44.697638Z,46.19063,-122.30377,earthquake,12053.0,,,,,,PB,EH,B026,,45.309353,-123.823051,232.0,"3$35,:1,:14998",100,2010-01-03T05:29:54.697638Z,,7252.0,,,,,impulsive,,,,,,,,,
ev1262496644_697638,2010-01-03T05:30:44.697638Z,46.19063,-122.30377,earthquake,12053.0,,,,,,PB,EH,B201,,46.303299,-122.264801,990.0,"2$30,:1,:14998",100,2010-01-03T05:29:54.697638Z,5589.0,,,,,impulsive,,,,,,,,,,
ev1262496644_697638,2010-01-03T05:30:44.697638Z,46.19063,-122.30377,earthquake,12053.0,,,,,,PB,EH,B202,,46.2447,-122.1367,1218.6,"1$34,:1,:14998",100,2010-01-03T05:29:54.697638Z,5542.0,5309.0,,,,impulsive,impulsive,,,,,,,,,
ev1262496644_697638,2010-01-03T05:30:44.697638Z,46.19063,-122.30377,earthquake,12053.0,,,,,,PB,EH,B203,,46.168999,-122.333664,814.4,"1$35,:1,:14998",100,2010-01-03T05:29:54.697638Z,5378.0,5210.0,,,,impulsive,impulsive,,,,,,,,,
ev1262496644_697638,2010-01-03T05:30:44.697638Z,46.19063,-122.30377,earthquake,12053.0,,,,,,PB,EH,B204,,46.136,-122.169,784.2,"5$38,:1,:14998",100,2010-01-03T05:29:54.697638Z,5497.0,5285.0,,,,impulsive,impulsive,,,,,,,,,
ev1262496644_697638,2010-01-03T05:30:44.697638Z,46.19063,-122.30377,earthquake,12053.0,,,,,,PB,EH,B941,,46.986801,-122.219002,151.0,"1$36,:1,:14998",100,2010-01-03T05:29:54.697638Z,7469.0,6420.0,,,,impulsive,impulsive,,,,,,,,,
ev1262496644_697638,2010-01-03T05:30:44.697638Z,46.19063,-122.30377,earthquake,12053.0,,,,,,UW,EH,FL2,,46.19622,-122.35149,1378.0,"3$36,:1,:14998",100,2010-01-03T05:29:54.697638Z,,5230.0,,,,,impulsive,,,,,,,,,
ev1262496644_697638,2010-01-03T05:30:44.697638Z,46.19063,-122.30377,earthquake,12053.0,,,,,,UW,EH,HSR,,46.17428,-122.18065,1720.0,"3$37,:1,:14998",100,2010-01-03T05:29:54.697638Z,5552.0,5311.0,,,,impulsive,impulsive,,,,,,,,,
ev1262496644_697638,2010-01-03T05:30:44.697638Z,46.19063,-122.30377,earthquake,12053.0,,,,,,UW,EH,KOS,,46.462799,-122.196022,610.0,"7$30,:1,:14998",100,2010-01-03T05:29:54.697638Z,5968.0,,,,,impulsive,,,,,,,,,,
ev1262496644_697638,2010-01-03T05:30:44.697638Z,46.19063,-122.30377,earthquake,12053.0,,,,,,UW,EH,SOS,,46.243858,-122.137871,1270.0,"7$31,:1,:14998",100,2010-01-03T05:29:54.697638Z,5583.0,5323.0,,,,impulsive,impulsive,,,,,,,,,
ev1262496644_697638,2010-01-03T05:30:44.697638Z,46.19063,-122.30377,earthquake,12053.0,,,,,,UW,EH,STD,,46.23761,-122.223961,1268.0,"3$38,:1,:14998",100,2010-01-03T05:29:54.697638Z,,5260.0,,,,,impulsive,,,,,,,,,
ev1262496644_697638,2010-01-03T05:30:44.697638Z,46.19063,-122.30377,earthquake,12053.0,,,,,,UW,EH,TDL,,46.35067,-122.21704,1400.0,"0$23,:1,:14998",100,2010-01-03T05:29:54.697638Z,5638.0,5373.0,,,,impulsive,impulsive,,,,,,,,,
ev1262499250_187544,2010-01-03T06:14:10.187544Z,46.14895,-122.27429,earthquake,10041.0,,,,,,PB,EH,B201,,46.303299,-122.264801,990.0,"4$36,:1,:14998",100,2010-01-03T06:13:20.187544Z,5598.0,,,,,impulsive,,,,,,,,,,
ev1262499250_187544,2010-01-03T06:14:10.187544Z,46.14895,-122.27429,earthquake,10041.0,,,,,,PB,EH,B202,,46.2447,-122.1367,1218.6,"2$31,:1,:14998",100,2010-01-03T06:13:20.187544Z,5537.0,5304.0,,,,impulsive,impulsive,,,,,,,,,
ev1262499250_187544,2010-01-03T06:14:10.187544Z,46.14895,-122.27429,earthquake,10041.0,,,,,,UW,EH,FL2,,46.19622,-122.35149,1378.0,"2$32,:1,:14998",100,2010-01-03T06:13:20.187544Z,,5226.0,,,,,impulsive,,,,,,,,,
ev1262499250_187544,2010-01-03T06:14:10.187544Z,46.14895,-122.27429,earthquake,10041.0,,,,,,UW,EH,STD,,46.23761,-122.223961,1268.0,"8$46,:1,:14998",100,2010-01-03T06:13:20.187544Z,,5263.0,,,,,impulsive,,,,,,,,,
ev1262499250_187544,2010-01-03T06:14:10.187544Z,46.14895,-122.27429,earthquake,10041.0,,,,,,UW,EH,TDL,,46.35067,-122.21704,1400.0,"10$35,:1,:14998",100,2010-01-03T06:13:20.187544Z,5639.0,,,,,impulsive,,,,,,,,,,
ev1262500466_204066,2010-01-03T06:34:26.204066Z,40.32989,-124.47823,earthquake,1608.0,,,,,,PB,EH,B046,,40.321972,-124.284302,44.0,"7$32,:1,:14998",100,2010-01-03T06:33:36.204066Z,5601.0,,,,,impulsive,,,,,,,,,,
ev1262500466_204066,2010-01-03T06:34:26.204066Z,40.32989,-124.47823,earthquake,1608.0,,,,,,PB,EH,B047,,40.249933,-124.169848,80.0,"5$39,:1,:14998",100,2010-01-03T06:33:36.204066Z,5982.0,5533.0,,,,impulsive,impulsive,,,,,,,,,
ev1262500466_204066,2010-01-03T06:34:26.204066Z,40.32989,-124.47823,earthquake,1608.0,,,,,,PB,EH,B049,,40.237499,-123.819702,117.0,"9$32,:1,:14998",100,2010-01-03T06:33:36.204066Z,6905.0,6081.0,,,,impulsive,impulsive,,,,,,,,,
ev1262500466_204066,2010-01-03T06:34:26.204066Z,40.32989,-124.47823,earthquake,1608.0,,,,,,PB,EH,B932,,40.275002,-124.221199,52.0,"9$33,:1,:14998",100,2010-01-03T06:33:36.204066Z,5793.0,5429.0,,,,impulsive,impulsive,,,,,,,,,
ev1262500466_204066,2010-01-03T06:34:26.204066Z,40.32989,-124.47823,earthquake,1608.0,,,,,,PB,EH,B933,,40.060001,-123.969002,268.1,"0$24,:1,:14998",100,2010-01-03T06:33:36.204066Z,6639.0,5961.0,,,,impulsive,impulsive,,,,,,,,,
ev1262500579_293248,2010-01-03T06:36:19.293248Z,46.16965,-122.30136,earthquake,12079.0,,,,,,PB,EH,B024,,45.637798,-123.855797,37.7,"10$36,:1,:14998",100,2010-01-03T06:35:29.293248Z,8306.0,,,,,impulsive,,,,,,,,,,
ev1262500579_293248,2010-01-03T06:36:19.293248Z,46.16965,-122.30136,earthquake,12079.0,,,,,,PB,EH,B201,,46.303299,-122.264801,990.0,"1$37,:1,:14998",100,2010-01-03T06:35:29.293248Z,5602.0,,,,,impulsive,,,,,,,,,,
ev1262500579_293248,2010-01-03T06:36:19.293248Z,46.16965,-122.30136,earthquake,12079.0,,,,,,PB,EH,B202,,46.2447,-122.1367,1218.6,"6$22,:1,:14998",100,2010-01-03T06:35:29.293248Z,5548.0,5320.0,,,,impulsive,impulsive,,,,,,,,,
ev1262500579_293248,2010-01-03T06:36:19.293248Z,46.16965,-122.30136,earthquake,12079.0,,,,,,PB,EH,B203,,46.168999,-122.333664,814.4,"2$33,:1,:14998",100,2010-01-03T06:35:29.293248Z,5385.0,5217.0,,,,impulsive,impulsive,,,,,,,,,
ev1262500579_293248,2010-01-03T06:36:19.293248Z,46.16965,-122.30136,earthquake,12079.0,,,,,,PB,EH,B204,,46.136,-122.169,784.2,"5$40,:1,:14998",100,2010-01-03T06:35:29.293248Z,5505.0,,,,,impulsive,,,,,,,,,,
ev1262500579_293248,2010-01-03T06:36:19.293248Z,46.16965,-122.30136,earthquake,12079.0,,,,,,UW,EH,FL2,,46.19622,-122.35149,1378.0,"8$47,:1,:14998",100,2010-01-03T06:35:29.293248Z,5424.0,5239.0,,,,impulsive,impulsive,,,,,,,,,
ev1262500579_293248,2010-01-03T06:36:19.293248Z,46.16965,-122.30136,earthquake,12079.0,,,,,,UW,EH,HSR,,46.17428,-122.18065,1720.0,"2$34,:1,:14998",100,2010-01-03T06:35:29.293248Z,5540.0,5302.0,,,,impulsive,impulsive,,,,,,,,,
ev1262500579_293248,2010-01-03T06:36:19.293248Z,46.16965,-122.30136,earthquake,12079.0,,,,,,UW,EH,KOS,,46.462799,-122.196022,610.0,"7$33,:1,:14998",100,2010-01-03T06:35:29.293248Z,,5561.0,,,,,impulsive,,,,,,,,,
ev1262500579_293248,2010-01-03T06:36:19.293248Z,46.16965,-122.30136,earthquake,12079.0,,,,,,UW,EH,SOS,,46.243858,-122.137871,1270.0,"8$48,:1,:14998",100,2010-01-03T06:35:29.293248Z,5559.0,,,,,impulsive,,,,,,,,,,
ev1262500579_293248,2010-01-03T06:36:19.293248Z,46.16965,-122.30136,earthquake,12079.0,,,,,,UW,EH,SVOH,,48.2892,-122.633163,22.0,"6$23,:1,:14998",100,2010-01-03T06:35:29.293248Z,,8358.0,,,,,impulsive,,,,,,,,,
ev1262514876_02801,2010-01-03T10:34:36.028010Z,40.30963,-124.58514,earthquake,15050.0,,,,,,PB,EH,B046,,40.321972,-124.284302,44.0,"8$49,:1,:14998",100,2010-01-03T10:33:46.028010Z,5969.0,5533.0,,,,impulsive,impulsive,,,,,,,,,
ev1262514876_02801,2010-01-03T10:34:36.028010Z,40.30963,-124.58514,earthquake,15050.0,,,,,,PB,EH,B047,,40.249933,-124.169848,80.0,"8$50,:1,:14998",100,2010-01-03T10:33:46.028010Z,6275.0,5714.0,,,,impulsive,impulsive,,,,,,,,,
ev1262514876_02801,2010-01-03T10:34:36.028010Z,40.30963,-124.58514,earthquake,15050.0,,,,,,PB,EH,B049,,40.237499,-123.819702,117.0,"7$34,:1,:14998",100,2010-01-03T10:33:46.028010Z,7099.0,6147.0,,,,impulsive,impulsive,,,,,,,,,
ev1262514876_02801,2010-01-03T10:34:36.028010Z,40.30963,-124.58514,earthquake,15050.0,,,,,,PB,EH,B932,,40.275002,-124.221199,52.0,"7$35,:1,:14998",100,2010-01-03T10:33:46.028010Z,6118.0,5634.0,,,,impulsive,impulsive,,,,,,,,,
ev1262514876_02801,2010-01-03T10:34:36.028010Z,40.30963,-124.58514,earthquake,15050.0,,,,,,PB,EH,B933,,40.060001,-123.969002,268.1,"8$51,:1,:14998",100,2010-01-03T10:33:46.028010Z,6780.0,,,,,impulsive,,,,,,,,,,
ev1262520390_396711,2010-01-03T12:06:30.396711Z,47.57552,-122.77266,earthquake,18579.0,,,,,,PB,EH,B001,,48.043072,-123.131409,237.0,"3$39,:1,:14998",100,2010-01-03T12:05:40.396711Z,6828.0,6000.0,,,,impulsive,impulsive,,,,,,,,,
ev1262520390_396711,2010-01-03T12:06:30.396711Z,47.57552,-122.77266,earthquake,18579.0,,,,,,PB,EH,B006,,48.0588,-123.500801,302.0,"5$41,:1,:14998",100,2010-01-03T12:05:40.396711Z,,6283.0,,,,,impulsive,,,,,,,,,
ev1262520390_396711,2010-01-03T12:06:30.396711Z,47.57552,-122.77266,earthquake,18579.0,,,,,,PB,EH,B013,,47.813,-122.910797,75.3,"8$52,:1,:14998",100,2010-01-03T12:05:40.396711Z,5943.0,5466.0,,,,impulsive,impulsive,,,,,,,,,
ev1262520390_396711,2010-01-03T12:06:30.396711Z,47.57552,-122.77266,earthquake,18579.0,,,,,,PB,EH,B017,,46.995998,-123.557503,33.9,"6$24,:1,:14998",100,2010-01-03T12:05:40.396711Z,7619.0,6437.0,,,,impulsive,impulsive,,,,,,,,,
ev1262520390_396711,2010-01-03T12:06:30.396711Z,47.57552,-122.77266,earthquake,18579.0,,,,,,PB,EH,B018,,46.9795,-123.020302,10.0,"5$42,:1,:14998",100,2010-01-03T12:05:40.396711Z,6984.0,6109.0,,,,impulsive,impulsive,,,,,,,,,
ev1262520390_396711,2010-01-03T12:06:30.396711Z,47.57552,-122.77266,earthquake,18579.0,,,,,,PB,EH,B201,,46.303299,-122.264801,990.0,"2$35,:1,:14998",100,2010-01-03T12:05:40.396711Z,9085.0,7362.0,,,,impulsive,impulsive,,,,,,,,,
ev1262520390_396711,2010-01-03T12:06:30.396711Z,47.57552,-122.77266,earthquake,18579.0,,,,,,PB,EH,B202,,46.2447,-122.1367,1218.6,"6$25,:1,:14998",100,2010-01-03T12:05:40.396711Z,9196.0,7402.0,,,,impulsive,impulsive,,,,,,,,,
ev1262520390_396711,2010-01-03T12:06:30.396711Z,47.57552,-122.77266,earthquake,18579.0,,,,,,PB,EH,B941,,46.986801,-122.219002,151.0,"6$26,:1,:14998",100,2010-01-03T12:05:40.396711Z,7179.0,6235.0,,,,impulsive,impulsive,,,,,,,,,
ev1262520390_396711,2010-01-03T12:06:30.396711Z,47.57552,-122.77266,earthquake,18579.0,,,,,,PB,EH,B943,,47.813202,-122.911301,84.2,"3$40,:1,:14998",100,2010-01-03T12:05:40.396711Z,5937.0,5527.0,,,,impulsive,impulsive,,,,,,,,,
ev1262520390_396711,2010-01-03T12:06:30.396711Z,47.57552,-122.77266,earthquake,18579.0,,,,,,UW,EH,BLN,,48.006624,-122.972646,601.0,"2$36,:1,:14998",100,2010-01-03T12:05:40.396711Z,6493.0,5842.0,,,,impulsive,impulsive,,,,,,,,,
ev1262520390_396711,2010-01-03T12:06:30.396711Z,47.57552,-122.77266,earthquake,18579.0,,,,,,UW,EH,CMW,,48.423519,-122.120262,1190.0,"8$53,:1,:14998",100,2010-01-03T12:05:40.396711Z,8099.0,,,,,impulsive,,,,,,,,,,
ev1262520390_396711,2010-01-03T12:06:30.396711Z,47.57552,-122.77266,earthquake,18579.0,,,,,,UW,EH,FL2,,46.19622,-122.35149,1378.0,"7$36,:1,:14998",100,2010-01-03T12:05:40.396711Z,9274.0,,,,,impulsive,,,,,,,,,,
ev1262520390_396711,2010-01-03T12:06:30.396711Z,47.57552,-122.77266,earthquake,18579.0,,,,,,UW,EH,GMW,,47.5488,-122.78546,520.0,"9$34,:1,:14998",100,2010-01-03T12:05:40.396711Z,5491.0,,,,,impulsive,,,,,,,,,,
ev1262520390_396711,2010-01-03T12:06:30.396711Z,47.57552,-122.77266,earthquake,18579.0,,,,,,UW,EH,HDW,,47.64903,-123.0535,987.4,"2$37,:1,:14998",100,2010-01-03T12:05:40.396711Z,5803.0,5451.0,,,,impulsive,impulsive,,,,,,,,,
ev1262520390_396711,2010-01-03T12:06:30.396711Z,47.57552,-122.77266,earthquake,18579.0,,,,,,UW,EH,LCW,,46.67049,-122.702011,396.0,"6$27,:1,:14998",100,2010-01-03T12:05:40.396711Z,7842.0,6594.0,,,,impulsive,impulsive,,,,,,,,,
ev1262520390_396711,2010-01-03T12:06:30.396711Z,47.57552,-122.77266,earthquake,18579.0,,,,,,UW,EH,OSD,,47.81642,-123.70568,2028.0,"10$37,:1,:14998",100,2010-01-03T12:05:40.396711Z,,6259.0,,,,,impulsive,,,,,,,,,
ev1262520390_396711,2010-01-03T12:06:30.396711Z,47.57552,-122.77266,earthquake,18579.0,,,,,,UW,EH,PCFR,,46.99057,-122.44277,134.3,"10$38,:1,:14998",100,2010-01-03T12:05:40.396711Z,,6148.0,,,,,impulsive,,,,,,,,,
ev1262520390_396711,2010-01-03T12:06:30.396711Z,47.57552,-122.77266,earthquake,18579.0,,,,,,UW,EH,SMW,,47.31945,-123.34445,877.0,"9$35,:1,:14998",100,2010-01-03T12:05:40.396711Z,6624.0,5895.0,,,,impulsive,impulsive,,,,,,,,,
ev1262520390_396711,2010-01-03T12:06:30.396711Z,47.57552,-122.77266,earthquake,18579.0,,,,,,UW,EH,TDL,,46.35067,-122.21704,1400.0,"6$28,:1,:14998",100,2010-01-03T12:05:40.396711Z,8928.0,7239.0,,,,impulsive,impulsive,,,,,,,,,
ev1262525852_133116,2010-01-03T13:37:32.133116Z,45.1771,-120.99306,earthquake,1124.0,,,,,,PB,EH,B028,,44.493668,-122.963837,140.0,"8$54,:1,:14998",100,2010-01-03T13:36:42.133116Z,9947.0,7746.0,,,,impulsive,impulsive,,,,,,,,,
ev1262525852_133116,2010-01-03T13:37:32.133116Z,45.1771,-120.99306,earthquake,1124.0,,,,,,PB,EH,B201,,46.303299,-122.264801,990.0,"5$43,:1,:14998",100,2010-01-03T13:36:42.133116Z,9685.0,7728.0,,,,impulsive,impulsive,,,,,,,,,
ev1262525852_133116,2010-01-03T13:37:32.133116Z,45.1771,-120.99306,earthquake,1124.0,,,,,,PB,EH,B202,,46.2447,-122.1367,1218.6,"5$44,:1,:14998",100,2010-01-03T13:36:42.133116Z,9284.0,7462.0,,,,impulsive,impulsive,,,,,,,,,
ev1262525852_133116,2010-01-03T13:37:32.133116Z,45.1771,-120.99306,earthquake,1124.0,,,,,,PB,EH,B204,,46.136,-122.169,784.2,"7$37,:1,:14998",100,2010-01-03T13:36:42.133116Z,9078.0,,,,,impulsive,,,,,,,,,,
ev1262525852_133116,2010-01-03T13:37:32.133116Z,45.1771,-120.99306,earthquake,1124.0,,,,,,PB,EH,B941,,46.986801,-122.219002,151.0,"9$36,:1,:14998",100,2010-01-03T13:36:42.133116Z,11354.0,,,,,impulsive,,,,,,,,,,
ev1262525852_133116,2010-01-03T13:37:32.133116Z,45.1771,-120.99306,earthquake,1124.0,,,,,,UW,EH,KOS,,46.462799,-122.196022,610.0,"7$38,:1,:14998",100,2010-01-03T13:36:42.133116Z,9905.0,,,,,impulsive,,,,,,,,,,
ev1262525852_133116,2010-01-03T13:37:32.133116Z,45.1771,-120.99306,earthquake,1124.0,,,,,,UW,EH,STD,,46.23761,-122.223961,1268.0,"2$38,:1,:14998",100,2010-01-03T13:36:42.133116Z,9443.0,,,,,impulsive,,,,,,,,,,
ev1262525852_133116,2010-01-03T13:37:32.133116Z,45.1771,-120.99306,earthquake,1124.0,,,,,,UW,EH,TDL,,46.35067,-122.21704,1400.0,"7$39,:1,:14998",100,2010-01-03T13:36:42.133116Z,9635.0,,,,,impulsive,,,,,,,,,,
ev1262535418_031695,2010-01-03T16:16:58.031695Z,40.36419,-123.9903,earthquake,14919.0,,,,,,PB,EH,B046,,40.321972,-124.284302,44.0,"1$38,:1,:14998",100,2010-01-03T16:16:08.031695Z,6018.0,5570.0,,,,impulsive,impulsive,,,,,,,,,
ev1262535418_031695,2010-01-03T16:16:58.031695Z,40.36419,-123.9903,earthquake,14919.0,,,,,,PB,EH,B047,,40.249933,-124.169848,80.0,"0$25,:1,:14998",100,2010-01-03T16:16:08.031695Z,5890.0,5468.0,,,,impulsive,impulsive,,,,,,,,,
ev1262535418_031695,2010-01-03T16:16:58.031695Z,40.36419,-123.9903,earthquake,14919.0,,,,,,PB,EH,B049,,40.237499,-123.819702,117.0,"6$29,:1,:14998",100,2010-01-03T16:16:08.031695Z,5893.0,5471.0,,,,impulsive,impulsive,,,,,,,,,
ev1262535418_031695,2010-01-03T16:16:58.031695Z,40.36419,-123.9903,earthquake,14919.0,,,,,,PB,EH,B932,,40.275002,-124.221199,52.0,"6$30,:1,:14998",100,2010-01-03T16:16:08.031695Z,5911.0,,,,,impulsive,,,,,,,,,,
ev1262535418_031695,2010-01-03T16:16:58.031695Z,40.36419,-123.9903,earthquake,14919.0,,,,,,PB,EH,B933,,40.060001,-123.969002,268.1,"6$31,:1,:14998",100,2010-01-03T16:16:08.031695Z,6185.0,,,,,impulsive,,,,,,,,,,
ev1262536672_031261,2010-01-03T16:37:52.031261Z,45.05914,-122.44958,earthquake,15084.0,,,,,,PB,EH,B022,,45.954609,-123.931046,10.0,"9$37,:1,:14998",100,2010-01-03T16:37:02.031261Z,9242.0,7427.0,,,,impulsive,impulsive,,,,,,,,,
ev1262536672_031261,2010-01-03T16:37:52.031261Z,45.05914,-122.44958,earthquake,15084.0,,,,,,PB,EH,B024,,45.637798,-123.855797,37.7,"1$39,:1,:14998",100,2010-01-03T16:37:02.031261Z,8553.0,7040.0,,,,impulsive,impulsive,,,,,,,,,
ev1262536672_031261,2010-01-03T16:37:52.031261Z,45.05914,-122.44958,earthquake,15084.0,,,,,,PB,EH,B026,,45.309353,-123.823051,232.0,"9$38,:1,:14998",100,2010-01-03T16:37:02.031261Z,8181.0,6828.0,,,,impulsive,impulsive,,,,,,,,,
ev1262536672_031261,2010-01-03T16:37:52.031261Z,45.05914,-122.44958,earthquake,15084.0,,,,,,PB,EH,B028,,44.493668,-122.963837,140.0,"8$55,:1,:14998",100,2010-01-03T16:37:02.031261Z,7271.0,6297.0,,,,impulsive,impulsive,,,,,,,,,
ev1262536672_031261,2010-01-03T16:37:52.031261Z,45.05914,-122.44958,earthquake,15084.0,,,,,,PB,EH,B032,,43.667999,-123.392303,63.8,"1$40,:1,:14998",100,2010-01-03T16:37:02.031261Z,9706.0,7670.0,,,,impulsive,impulsive,,,,,,,,,
ev1262536672_031261,2010-01-03T16:37:52.031261Z,45.05914,-122.44958,earthquake,15084.0,,,,,,PB,EH,B201,,46.303299,-122.264801,990.0,"2$39,:1,:14998",100,2010-01-03T16:37:02.031261Z,9007.0,7352.0,,,,impulsive,impulsive,,,,,,,,,
ev1262536672_031261,2010-01-03T16:37:52.031261Z,45.05914,-122.44958,earthquake,15084.0,,,,,,PB,EH,B202,,46.2447,-122.1367,1218.6,"1$41,:1,:14998",100,2010-01-03T16:37:02.031261Z,8719.0,7160.0,,,,impulsive,impulsive,,,,,,,,,
ev1262536672_031261,2010-01-03T16:37:52.031261Z,45.05914,-122.44958,earthquake,15084.0,,,,,,PB,EH,B203,,46.168999,-122.333664,814.4,"10$39,:1,:14998",100,2010-01-03T16:37:02.031261Z,8535.0,7030.0,,,,impulsive,impulsive,,,,,,,,,
